     2              NAVIGATION DATA                         RINEX VERSION / TYPE
CCRINEXN V1.6.0 UX  CDDIS               06-JUL-20 23:30     PGM / RUN BY / DATE 
IGS BROADCAST EPHEMERIS FILE                                COMMENT             
    0.4657D-08  0.1490D-07 -0.5960D-07 -0.1192D-06          ION ALPHA           
    0.8192D+05  0.8192D+05 -0.6554D+05 -0.5243D+06          ION BETA            
    0.372529029846D-08 0.976996261670D-14   319488     2113 DELTA-UTC: A0,A1,T,W
    18                                                      LEAP SECONDS        
                                                            END OF HEADER       
 1 20  7  6  0  0  0.0 0.218269415200D-04 0.522959453519D-11 0.000000000000D+00
    0.380000000000D+02-0.112593750000D+03 0.425767734935D-08-0.108367052199D+01
   -0.564940273762D-05 0.100296005840D-01 0.307708978653D-05 0.515370638657D+04
    0.864000000000D+05 0.167638063431D-06 0.232459210082D+01 0.931322574615D-07
    0.980712733593D+00 0.326812500000D+03 0.802079025354D+00-0.812248119109D-08
   -0.152506352502D-09 0.100000000000D+01 0.211300000000D+04 0.000000000000D+00
    0.200000000000D+01 0.000000000000D+00 0.512227416039D-08 0.380000000000D+02
    0.792180000000D+05 0.400000000000D+01 0.000000000000D+00 0.000000000000D+00
 2 20  7  6  0  0  0.0-0.482859555632D-03-0.579802872380D-11 0.000000000000D+00
    0.280000000000D+02-0.105687500000D+03 0.489698969356D-08-0.835815393809D+00
   -0.526569783688D-05 0.197247230681D-01 0.247731804848D-05 0.515373143387D+04
    0.864000000000D+05-0.292435288429D-06 0.224748070724D+01 0.221654772759D-06
    0.959615494580D+00 0.338562500000D+03-0.162039593376D+01-0.876643658584D-08
   -0.892894335490D-10 0.100000000000D+01 0.211300000000D+04 0.000000000000D+00
    0.200000000000D+01 0.000000000000D+00-0.176951289177D-07 0.280000000000D+02
    0.792180000000D+05 0.400000000000D+01 0.000000000000D+00 0.000000000000D+00
 3 20  7  6  0  0  0.0-0.230803620070D-03-0.117097442853D-10 0.000000000000D+00
    0.870000000000D+02-0.856562500000D+02 0.419624621907D-08-0.213311192668D+01
   -0.444054603577D-05 0.302588555496D-02 0.114869326353D-04 0.515380026436D+04
    0.864000000000D+05 0.428408384323D-07-0.291873679850D+01-0.372529029846D-07
    0.966470338100D+00 0.160531250000D+03 0.774034002172D+00-0.766317634491D-08
    0.390373403476D-09 0.100000000000D+01 0.211300000000D+04 0.000000000000D+00
    0.200000000000D+01 0.000000000000D+00 0.186264514923D-08 0.870000000000D+02
    0.792180000000D+05 0.400000000000D+01 0.000000000000D+00 0.000000000000D+00
 4 20  7  6  0  0  0.0-0.111166387796D-03-0.466116034659D-11 0.000000000000D+00
    0.130000000000D+02 0.177500000000D+02 0.495199198463D-08 0.102418599220D+00
    0.815838575363D-06 0.785082112998D-03 0.595115125179D-05 0.515365274239D+04
    0.864000000000D+05-0.596046447754D-07-0.183975024176D+01-0.242143869400D-07
    0.959586708741D+00 0.260312500000D+03-0.264463595006D+01-0.811855245601D-08
    0.304298389535D-09 0.100000000000D+01 0.211300000000D+04 0.000000000000D+00
    0.200000000000D+01 0.000000000000D+00-0.419095158577D-08 0.525000000000D+03
    0.792180000000D+05 0.400000000000D+01 0.000000000000D+00 0.000000000000D+00
 5 20  7  6  0  0  0.0-0.160527415574D-04-0.795807864051D-12 0.000000000000D+00
    0.740000000000D+02-0.106875000000D+03 0.445625704957D-08 0.184931225907D+01
   -0.542216002941D-05 0.597575074062D-02 0.114310532808D-04 0.515370329475D+04
    0.864000000000D+05-0.189989805222D-06-0.295115372895D+01-0.149011611938D-07
    0.953387662137D+00 0.158093750000D+03 0.816065443830D+00-0.782854037584D-08
    0.344657213499D-09 0.100000000000D+01 0.211300000000D+04 0.000000000000D+00
    0.200000000000D+01 0.000000000000D+00-0.111758708954D-07 0.740000000000D+02
    0.792180000000D+05 0.400000000000D+01 0.000000000000D+00 0.000000000000D+00
 6 20  7  6  0  0  0.0-0.299029052258D-03-0.534328137292D-11 0.000000000000D+00
    0.730000000000D+02-0.124562500000D+03 0.426267755763D-08-0.873036222469D+00
   -0.666081905365D-05 0.180441967677D-02 0.277161598206D-05 0.515357319450D+04
    0.864000000000D+05-0.149011611938D-07 0.231634360254D+01 0.167638063431D-07
    0.980255397606D+00 0.338937500000D+03-0.106153955434D+01-0.819248410699D-08
   -0.178221709364D-09 0.100000000000D+01 0.211300000000D+04 0.000000000000D+00
    0.280000000000D+01 0.000000000000D+00 0.419095158577D-08 0.730000000000D+02
    0.792180000000D+05 0.400000000000D+01 0.000000000000D+00 0.000000000000D+00
 7 20  7  6  0  0  0.0-0.320568680763D-03-0.875388650456D-11 0.000000000000D+00
    0.810000000000D+02-0.158750000000D+02 0.478162774542D-08-0.182208288879D+01
   -0.944361090660D-06 0.140709115658D-01 0.705383718014D-05 0.515364828682D+04
    0.864000000000D+05 0.167638063431D-06-0.813709996505D+00-0.147148966789D-06
    0.952831697676D+00 0.237656250000D+03-0.238282248703D+01-0.782282585210D-08
   -0.530022077547D-09 0.100000000000D+01 0.211300000000D+04 0.000000000000D+00
    0.200000000000D+01 0.000000000000D+00-0.111758708954D-07 0.810000000000D+02
    0.792180000000D+05 0.400000000000D+01 0.000000000000D+00 0.000000000000D+00
 9 20  7  6  0  0  0.0-0.248611439019D-03-0.659383658785D-11 0.000000000000D+00
    0.510000000000D+02 0.194375000000D+02 0.505628204301D-08 0.142729425098D+01
    0.849366188049D-06 0.153835432138D-02 0.649690628052D-05 0.515369153976D+04
    0.864000000000D+05-0.223517417908D-07-0.188799830698D+01-0.558793544769D-08
    0.952352132649D+00 0.247750000000D+03 0.179419687749D+01-0.811783814054D-08
    0.392516349881D-09 0.100000000000D+01 0.211300000000D+04 0.000000000000D+00
    0.200000000000D+01 0.000000000000D+00 0.139698386192D-08 0.510000000000D+02
    0.792180000000D+05 0.400000000000D+01 0.000000000000D+00 0.000000000000D+00
10 20  7  6  0  0  0.0-0.391400884837D-03-0.108002495835D-10 0.000000000000D+00
    0.370000000000D+02-0.787812500000D+02 0.412874340731D-08 0.312982437002D+01
   -0.405870378017D-05 0.569046381861D-02 0.110752880573D-04 0.515367521668D+04
    0.864000000000D+05-0.428408384323D-07-0.292175448250D+01-0.100582838059D-06
    0.966411351780D+00 0.170968750000D+03-0.263955643224D+01-0.757781564644D-08
    0.315370279295D-09 0.100000000000D+01 0.211300000000D+04 0.000000000000D+00
    0.200000000000D+01 0.000000000000D+00 0.232830643654D-08 0.370000000000D+02
    0.809470000000D+05 0.400000000000D+01 0.000000000000D+00 0.000000000000D+00
11 20  7  6  0  0  0.0-0.229263212532D-03 0.105728759081D-10 0.000000000000D+00
    0.850000000000D+02-0.332187500000D+02 0.590988902774D-08-0.159922936705D+01
   -0.127218663693D-05 0.160650875187D-01-0.210478901863D-06 0.515371419907D+04
    0.864000000000D+05-0.275671482086D-06 0.184730012351D+01 0.217929482460D-06
    0.912815820660D+00 0.361875000000D+03 0.200221407070D+01-0.906644908257D-08
    0.607168148133D-10 0.100000000000D+01 0.211300000000D+04 0.000000000000D+00
    0.280000000000D+01 0.000000000000D+00-0.125728547573D-07 0.850000000000D+02
    0.792180000000D+05 0.400000000000D+01 0.000000000000D+00 0.000000000000D+00
12 20  7  6  0  0  0.0 0.974563881755D-04-0.488853402203D-11 0.000000000000D+00
    0.440000000000D+02 0.113437500000D+03 0.355729103259D-08-0.252266915189D+01
    0.593811273575D-05 0.798446440604D-02 0.114236027002D-04 0.515367457199D+04
    0.864000000000D+05-0.745058059692D-08 0.292494247651D+00-0.689178705216D-07
    0.978176488611D+00 0.167812500000D+03 0.116450204749D+01-0.733101965211D-08
   -0.141434462742D-09 0.100000000000D+01 0.211300000000D+04 0.000000000000D+00
    0.200000000000D+01 0.000000000000D+00-0.121071934700D-07 0.440000000000D+02
    0.792180000000D+05 0.400000000000D+01 0.000000000000D+00 0.000000000000D+00
13 20  7  6  0  0  0.0 0.242297537625D-04 0.329691829393D-11 0.000000000000D+00
    0.800000000000D+02 0.127500000000D+02 0.487234580990D-08 0.373847702817D+00
    0.845640897751D-06 0.419989740476D-02 0.584870576859D-05 0.515365147209D+04
    0.864000000000D+05 0.447034835815D-07-0.174444230508D+01 0.111758708954D-07
    0.967383870461D+00 0.267812500000D+03 0.105970922439D+01-0.812712424163D-08
    0.253581991279D-09 0.100000000000D+01 0.211300000000D+04 0.000000000000D+00
    0.200000000000D+01 0.000000000000D+00-0.111758708954D-07 0.800000000000D+02
    0.792180000000D+05 0.400000000000D+01 0.000000000000D+00 0.000000000000D+00
14 20  7  6  0  0  0.0-0.802800059319D-06 0.284217094304D-11 0.000000000000D+00
    0.140000000000D+02 0.180625000000D+02 0.501628037678D-08 0.852395952250D+00
    0.994652509689D-06 0.115407266421D-01 0.642985105515D-05 0.515365580559D+04
    0.864000000000D+05-0.169500708580D-06-0.179172756394D+01 0.856816768646D-07
    0.960005145736D+00 0.259812500000D+03-0.191067104879D+01-0.833606151614D-08
    0.245367363393D-09 0.100000000000D+01 0.211300000000D+04 0.000000000000D+00
    0.200000000000D+01 0.000000000000D+00-0.977888703346D-08 0.140000000000D+02
    0.792000000000D+05 0.000000000000D+00 0.000000000000D+00 0.000000000000D+00
15 20  7  6  0  0  0.0-0.219516921788D-03 0.261479726760D-11 0.000000000000D+00
    0.250000000000D+02 0.175937500000D+02 0.573702468439D-08 0.220783094742D+00
    0.118464231491D-05 0.123946522362D-01 0.672973692417D-05 0.515370180511D+04
    0.864000000000D+05-0.279396772385D-07-0.197857020291D+01 0.106170773506D-06
    0.927964084286D+00 0.230218750000D+03 0.889266625616D+00-0.866500378933D-08
    0.380015829185D-09 0.100000000000D+01 0.211300000000D+04 0.000000000000D+00
    0.200000000000D+01 0.000000000000D+00-0.107102096081D-07 0.250000000000D+02
    0.792180000000D+05 0.400000000000D+01 0.000000000000D+00 0.000000000000D+00
